{
  "norad_id": 27606,
  "name": "LATINSAT B",
  "history": [
    {
      "epoch": "2026-05-04T05:08:38.113728Z",
      "apogee_km": 699.9953722543005,
      "perigee_km": 577.8261846353316,
      "latitude_deg": 2.2255399607936577e-05,
      "longitude_deg": 86.17492665567218,
      "height_km": 631.4070320286381,
      "semi_major_axis_km": 7017.047778444816,
      "eccentricity": 0.00870517,
      "inclination_deg": 64.5559,
      "raan_deg": 25.4406,
      "arg_perigee_deg": 278.5446,
      "mean_anomaly_deg": 80.58,
      "mean_motion_rev_day": 14.76968087
    },
    {
      "epoch": "2026-05-05T18:31:10.902144Z",
      "apogee_km": 700.0020490058505,
      "perigee_km": 577.801720237936,
      "latitude_deg": -3.305493335263842e-06,
      "longitude_deg": -120.76857814178734,
      "height_km": 631.7247306555706,
      "semi_major_axis_km": 7017.038884621893,
      "eccentricity": 0.0087074,
      "inclination_deg": 64.5559,
      "raan_deg": 20.6687,
      "arg_perigee_deg": 278.2319,
      "mean_anomaly_deg": 80.8916,
      "mean_motion_rev_day": 14.76970895
    },
    {
      "epoch": "2026-05-06T20:31:12.736992Z",
      "apogee_km": 700.0144405833908,
      "perigee_km": 577.7818981540877,
      "latitude_deg": -1.1188333684938724e-06,
      "longitude_deg": -155.16362943874694,
      "height_km": 631.9430136971565,
      "semi_major_axis_km": 7017.035169368739,
      "eccentricity": 0.0087097,
      "inclination_deg": 64.5559,
      "raan_deg": 17.3491,
      "arg_perigee_deg": 278.0188,
      "mean_anomaly_deg": 81.1039,
      "mean_motion_rev_day": 14.76972068
    },
    {
      "epoch": "2026-05-07T19:16:14.282112Z",
      "apogee_km": 700.0229861478774,
      "perigee_km": 577.7666442381324,
      "latitude_deg": 3.9083028849480325e-05,
      "longitude_deg": -140.25897867137306,
      "height_km": 632.1294518731731,
      "semi_major_axis_km": 7017.031815193005,
      "eccentricity": 0.0087114,
      "inclination_deg": 64.5558,
      "raan_deg": 14.4445,
      "arg_perigee_deg": 277.8371,
      "mean_anomaly_deg": 81.285,
      "mean_motion_rev_day": 14.76973127
    },
    {
      "epoch": "2026-05-08T16:23:45.661632Z",
      "apogee_km": 700.028371434295,
      "perigee_km": 577.755241079507,
      "latitude_deg": 8.283575968683963e-05,
      "longitude_deg": -100.70449723387722,
      "height_km": 632.3039540189033,
      "semi_major_axis_km": 7017.028806256901,
      "eccentricity": 0.0087126,
      "inclination_deg": 64.5558,
      "raan_deg": 11.7473,
      "arg_perigee_deg": 277.6677,
      "mean_anomaly_deg": 81.4539,
      "mean_motion_rev_day": 14.76974077
    },
    {
      "epoch": "2026-05-09T20:01:17.409792Z",
      "apogee_km": 700.0296838816848,
      "perigee_km": 577.7481831538307,
      "latitude_deg": 1.0089727081735625e-05,
      "longitude_deg": -159.74855657178773,
      "height_km": 632.5460482500597,
      "semi_major_axis_km": 7017.025933517757,
      "eccentricity": 0.0087132,
      "inclination_deg": 64.5557,
      "raan_deg": 8.2201,
      "arg_perigee_deg": 277.435,
      "mean_anomaly_deg": 81.6859,
      "mean_motion_rev_day": 14.76974984
    },
    {
      "epoch": "2026-05-10T20:23:48.901920Z",
      "apogee_km": 700.0346486103408,
      "perigee_km": 577.737758009137,
      "latitude_deg": -6.5903772820683335e-06,
      "longitude_deg": -169.4931455526214,
      "height_km": 632.7512443874131,
      "semi_major_axis_km": 7017.023203309738,
      "eccentricity": 0.0087143,
      "inclination_deg": 64.5555,
      "raan_deg": 5.1078,
      "arg_perigee_deg": 277.2371,
      "mean_anomaly_deg": 81.8832,
      "mean_motion_rev_day": 14.76975846
    },
    {
      "epoch": "2026-05-11T09:23:49.680672Z",
      "apogee_km": 700.037858234763,
      "perigee_km": 577.7318688553587,
      "latitude_deg": -6.3162650464060825e-06,
      "longitude_deg": -6.690190332742485,
      "height_km": 632.8550613589956,
      "semi_major_axis_km": 7017.02186354506,
      "eccentricity": 0.00871495,
      "inclination_deg": 64.5555,
      "raan_deg": 3.4479,
      "arg_perigee_deg": 277.137,
      "mean_anomaly_deg": 81.983,
      "mean_motion_rev_day": 14.76976269
    },
    {
      "epoch": "2026-05-12T19:31:21.669600Z",
      "apogee_km": 700.0394308977666,
      "perigee_km": 577.7229797534546,
      "latitude_deg": 1.439574683709032e-05,
      "longitude_deg": -164.33225402516157,
      "height_km": 633.1564074501648,
      "semi_major_axis_km": 7017.01820532561,
      "eccentricity": 0.0087157,
      "inclination_deg": 64.5553,
      "raan_deg": 359.0906,
      "arg_perigee_deg": 276.8479,
      "mean_anomaly_deg": 82.2714,
      "mean_motion_rev_day": 14.76977424
    },
    {
      "epoch": "2026-05-13T21:31:23.126880Z",
      "apogee_km": 700.0514541678085,
      "perigee_km": 577.7055784318109,
      "latitude_deg": 8.342257478012843e-06,
      "longitude_deg": 161.27407311202452,
      "height_km": 633.3776946673971,
      "semi_major_axis_km": 7017.015516299809,
      "eccentricity": 0.0087178,
      "inclination_deg": 64.5552,
      "raan_deg": 355.7708,
      "arg_perigee_deg": 276.6344,
      "mean_anomaly_deg": 82.4842,
      "mean_motion_rev_day": 14.76978273
    },
    {
      "epoch": "2026-05-14T07:16:23.667744Z",
      "apogee_km": 700.0492829320547,
      "perigee_km": 577.7049751270551,
      "latitude_deg": -2.966233738729933e-05,
      "longitude_deg": 13.376377214629153,
      "height_km": 633.4630826585268,
      "semi_major_axis_km": 7017.014129029554,
      "eccentricity": 0.00871769,
      "inclination_deg": 64.5552,
      "raan_deg": 354.5258,
      "arg_perigee_deg": 276.5525,
      "mean_anomaly_deg": 82.5659,
      "mean_motion_rev_day": 14.76978711
    }
  ]
}